      2.10          N: GNSS NAV DATA                        RINEX VERSION / TYPE
fic2rin                                 07/28/2019 00:19:36 PGM / RUN BY / DATE
                                                            END OF HEADER
19 19  7 27  2  0  0.0-2.889623865485e-04 4.888534022029e-12 0.000000000000e+00
    4.100000000000e+01-6.525000000000e+01 3.990523364173e-09-1.209796481108e+00
   -3.015622496605e-06 9.589572902769e-03 5.612149834633e-06 5.153643285751e+03
    5.256000000000e+05-1.303851604462e-08 1.346839928672e+00 2.086162567139e-07
    9.818974456156e-01 2.825000000000e+02 1.463080632872e+00-8.088194048605e-09
   -9.107522222000e-11 1.000000000000e+00 2.063000000000e+03 0.000000000000e+00
    2.400000000000e+00 0.000000000000e+00-1.536682248116e-08 4.100000000000e+01
    5.184000000000e+05 4.000000000000e+00
24 19  7 27  2  0  0.0-6.935372948647e-05-5.684341886081e-13 0.000000000000e+00
    9.900000000000e+01 4.503125000000e+01 5.080925926673e-09 4.690000318253e-01
    2.535060048103e-06 8.428358240053e-03 9.518116712570e-06 5.153710535049e+03
    5.256000000000e+05-1.862645149231e-09-9.005389155862e-01 1.229345798492e-07
    9.380794079384e-01 1.805937500000e+02 6.029509715110e-01-8.343561828555e-09
   -3.464430021702e-10 1.000000000000e+00 2.063000000000e+03 0.000000000000e+00
    2.400000000000e+00 0.000000000000e+00 2.793967723846e-09 9.900000000000e+01
    5.184000000000e+05 4.000000000000e+00
30 19  7 27  2  0  0.0-7.135793566704e-06-7.617018127348e-12 0.000000000000e+00
    9.600000000000e+01 7.259375000000e+01 4.869488548029e-09-4.618396988258e-01
    3.559514880180e-06 4.189793136902e-03 1.008063554764e-05 5.153780342102e+03
    5.256000000000e+05 7.636845111847e-08-8.062909859417e-01 1.862645149231e-08
    9.403937955420e-01 1.734375000000e+02-2.924137808660e+00-8.195341368863e-09
   -2.567964108870e-10 1.000000000000e+00 2.063000000000e+03 0.000000000000e+00
    2.400000000000e+00 0.000000000000e+00 3.725290298462e-09 9.600000000000e+01
    5.184000000000e+05 4.000000000000e+00
26 19  7 27  2  0  0.0 3.795139491558e-07 9.208633855451e-12 0.000000000000e+00
    5.000000000000e+01 7.075000000000e+01 4.726625454351e-09-2.062403516345e+00
    3.747642040253e-06 3.747911890969e-03 4.401430487633e-06 5.153643835068e+03
    5.256000000000e+05-1.862645149231e-09 1.724923415698e-01 1.117587089539e-08
    9.510624152928e-01 2.907500000000e+02 1.521796640596e-01-8.297488480843e-09
    4.857345185067e-11 1.000000000000e+00 2.063000000000e+03 0.000000000000e+00
    2.400000000000e+00 0.000000000000e+00 7.450580596924e-09 5.000000000000e+01
    5.184000000000e+05 4.000000000000e+00
31 19  7 27  2  0  0.0 2.157175913453e-05-2.614797267597e-12 0.000000000000e+00
    7.900000000000e+01 5.550000000000e+01 4.448399579412e-09-7.494413339940e-01
    2.875924110413e-06 9.233678691089e-03 9.432435035706e-06 5.153661088943e+03
    5.256000000000e+05 1.490116119385e-07-8.192711669383e-01-1.266598701477e-07
    9.594854162932e-01 1.990312500000e+02 1.278334244324e-02-7.985332621156e-09
   -2.210806374674e-10 1.000000000000e+00 2.063000000000e+03 0.000000000000e+00
    2.400000000000e+00 0.000000000000e+00-1.350417733192e-08 7.900000000000e+01
    5.184000000000e+05 4.000000000000e+00
32 19  7 27  2  0  0.0 1.306645572186e-05 1.500666257925e-11 0.000000000000e+00
    9.800000000000e+01-1.612500000000e+01 4.864131182016e-09 3.043309183963e+00
   -8.512288331985e-07 3.208643873222e-03 7.653608918190e-06 5.153607511520e+03
    5.256000000000e+05-9.126961231232e-08-1.902597004951e+00-5.774199962616e-08
    9.564469647009e-01 2.288125000000e+02-2.481924289629e+00-8.078193632047e-09
   -3.000124967247e-10 1.000000000000e+00 2.063000000000e+03 0.000000000000e+00
    2.400000000000e+00 0.000000000000e+00 4.656612873077e-10 9.800000000000e+01
    5.184000000000e+05 4.000000000000e+00
29 19  7 27  2  0  0.0 1.410250551999e-04-9.890754881781e-12 0.000000000000e+00
    7.400000000000e+01-5.840625000000e+01 3.879447308838e-09 2.739773850304e+00
   -2.961605787277e-06 1.210208749399e-03 4.809349775314e-06 5.153721279144e+03
    5.256000000000e+05-6.891787052155e-08 1.311926739175e+00 3.725290298462e-09
    9.855082551288e-01 3.005312500000e+02 1.870142563813e+00-7.887114244252e-09
   -1.132190017402e-10 1.000000000000e+00 2.063000000000e+03 0.000000000000e+00
    2.400000000000e+00 0.000000000000e+00-9.778887033463e-09 7.400000000000e+01
    5.184000000000e+05 4.000000000000e+00
17 19  7 27  2  0  0.0 9.577767923474e-05 6.707523425575e-12 0.000000000000e+00
    5.000000000000e+01-7.259375000000e+01 3.830873856987e-09 2.257940564196e+00
   -3.764405846596e-06 1.290460606106e-02 5.114823579788e-06 5.153775022507e+03
    5.256000000000e+05 2.197921276093e-07 1.300687546263e+00-1.098960638046e-07
    9.840164166221e-01 2.900312500000e+02-1.710968562605e+00-7.780681239462e-09
   -1.360770967287e-10 1.000000000000e+00 2.063000000000e+03 0.000000000000e+00
    2.400000000000e+00 0.000000000000e+00-1.117587089539e-08 5.000000000000e+01
    5.184000000000e+05 4.000000000000e+00
12 19  7 27  2  0  0.0 2.200370654464e-04-3.637978807092e-12 0.000000000000e+00
    4.100000000000e+01 6.846875000000e+01 4.141601085738e-09-1.161771791773e+00
    3.553926944733e-06 7.529835100286e-03 4.690140485764e-06 5.153607137680e+03
    5.256000000000e+05 8.009374141693e-08 2.671990964520e-01 2.160668373108e-07
    9.823926258304e-01 3.005000000000e+02 1.105812147000e+00-8.081765209389e-09
   -2.607251459631e-11 1.000000000000e+00 2.063000000000e+03 0.000000000000e+00
    2.400000000000e+00 0.000000000000e+00-1.257285475731e-08 4.100000000000e+01
    5.184000000000e+05 4.000000000000e+00
28 19  7 27  2  0  0.0 7.658600807190e-04-5.684341886081e-13 0.000000000000e+00
    5.000000000000e+01 6.703125000000e+01 4.023381875719e-09-3.100152700432e+00
    3.483146429062e-06 1.900925382506e-02 3.905966877937e-06 5.153704111099e+03
    5.256000000000e+05 1.806765794754e-07 2.900204824372e-01 2.793967723846e-08
    9.816785082217e-01 3.149062500000e+02-1.462714250891e+00-7.718535793712e-09
    2.142946405177e-11 1.000000000000e+00 2.063000000000e+03 0.000000000000e+00
    3.400000000000e+00 0.000000000000e+00-1.117587089539e-08 5.000000000000e+01
    5.184000000000e+05 4.000000000000e+00
20 19  7 27  2  0  0.0 5.261669866741e-04 2.273736754432e-13 0.000000000000e+00
    4.000000000000e+01-1.562500000000e+00 5.407010937995e-09-2.007073558327e-01
   -1.192092895508e-07 4.601516528055e-03 7.439404726028e-06 5.153618246078e+03
    5.256000000000e+05-2.421438694000e-08-3.065147620662e+00-5.587935447693e-09
    9.315592157062e-01 2.200625000000e+02 2.398064362789e+00-8.525355115261e-09
    4.439470636057e-10 1.000000000000e+00 2.063000000000e+03 0.000000000000e+00
    2.400000000000e+00 0.000000000000e+00-8.847564458847e-09 4.000000000000e+01
    5.184000000000e+05 4.000000000000e+00
10 19  7 27  2  0  0.0-3.017345443368e-05-1.341504685115e-11 0.000000000000e+00
    9.500000000000e+01-1.562500000000e-01 4.706981778970e-09-1.840156650642e+00
   -1.452863216400e-07 4.676581127569e-03 7.230788469315e-06 5.153660503387e+03
    5.256000000000e+05 8.754432201385e-08-2.944638291204e+00-1.117587089539e-08
    9.636881882926e-01 2.407187500000e+02-2.711342761578e+00-8.073907739237e-09
    4.314465429089e-10 1.000000000000e+00 2.063000000000e+03 0.000000000000e+00
    2.400000000000e+00 0.000000000000e+00 1.862645149231e-09 9.500000000000e+01
    5.184000000000e+05 4.000000000000e+00
23 19  7 27  2  0  0.0-1.752832904458e-04 1.818989403546e-12 0.000000000000e+00
    8.900000000000e+01-1.243750000000e+01 5.380581265664e-09 1.015887106633e+00
   -4.824250936508e-07 1.325518335216e-02 7.914379239082e-06 5.153782571793e+03
    5.256000000000e+05-1.005828380585e-07-1.915286423664e+00 1.601874828339e-07
    9.430269325141e-01 2.226250000000e+02-2.238352461233e+00-8.534998374084e-09
   -3.814444601214e-10 1.000000000000e+00 2.063000000000e+03 0.000000000000e+00
    2.400000000000e+00 0.000000000000e+00-2.002343535423e-08 8.900000000000e+01
    5.184000000000e+05 4.000000000000e+00
15 19  7 27  2  0  0.0-2.982658334076e-04 2.501110429876e-12 0.000000000000e+00
    1.020000000000e+02-2.290625000000e+01 5.764882987659e-09 1.485983421471e+00
   -1.059845089912e-06 1.149608823471e-02 7.338821887970e-06 5.153724306107e+03
    5.256000000000e+05-2.365559339523e-07-1.991191496455e+00 1.117587089539e-07
    9.277678806391e-01 2.252812500000e+02 7.909155091942e-01-8.684290306978e-09
   -2.792973481413e-10 1.000000000000e+00 2.063000000000e+03 0.000000000000e+00
    2.400000000000e+00 0.000000000000e+00-1.071020960808e-08 1.020000000000e+02
    5.184000000000e+05 4.000000000000e+00
11 19  7 27  2  0  0.0-5.511040799320e-04 9.663381206337e-12 0.000000000000e+00
    1.000000000000e+02-7.275000000000e+01 5.514872573722e-09-5.424317329275e-01
   -3.946945071220e-06 1.675476797391e-02 8.407980203629e-06 5.153721853256e+03
    5.256000000000e+05-2.849847078323e-07 1.845084801794e+00-5.587935447693e-09
    9.099464546023e-01 1.930937500000e+02 1.914894254826e+00-8.867155066886e-09
    1.725071856167e-10 1.000000000000e+00 2.063000000000e+03 0.000000000000e+00
    3.400000000000e+00 0.000000000000e+00-1.210719347000e-08 1.000000000000e+02
    5.184000000000e+05 4.000000000000e+00
21 19  7 27  2  0  0.0-1.473412849009e-04 6.934897101019e-12 0.000000000000e+00
    1.020000000000e+02-4.743750000000e+01 4.503401870478e-09-1.659570978124e+00
   -1.929700374603e-06 2.448889252264e-02 8.909031748772e-06 5.153698680878e+03
    5.256000000000e+05-9.313225746155e-09 2.234061618639e+00 6.258487701416e-07
    9.492694029152e-01 2.006875000000e+02-1.426002839565e+00-8.036049019412e-09
    2.242950570751e-10 1.000000000000e+00 2.063000000000e+03 0.000000000000e+00
    2.400000000000e+00 0.000000000000e+00-1.024454832077e-08 1.020000000000e+02
    5.184000000000e+05 4.000000000000e+00
